[{"OBJECT_NAME":"GHGSAT-C8","OBJECT_ID":"2023-054J","EPOCH":"2026-03-09T23:10:01.317792","MEAN_MOTION":15.49937888,"ECCENTRICITY":0.00074211,"INCLINATION":97.3083,"RA_OF_ASC_NODE":336.6662,"ARG_OF_PERICENTER":72.8348,"MEAN_ANOMALY":287.3715,"EPHEMERIS_TYPE":0,"CLASSIFICATION_TYPE":"U","NORAD_CAT_ID":56186,"ELEMENT_SET_NO":999,"REV_AT_EPOCH":16305,"BSTAR":0.00034138047,"MEAN_MOTION_DOT":0.00019034,"MEAN_MOTION_DDOT":0},{"OBJECT_NAME":"ICEYE-X25","OBJECT_ID":"2023-084AH","EPOCH":"2026-03-09T21:45:30.911328","MEAN_MOTION":15.51745691,"ECCENTRICITY":0.00040532,"INCLINATION":97.576,"RA_OF_ASC_NODE":209.03,"ARG_OF_PERICENTER":281.7425,"MEAN_ANOMALY":78.3371,"EPHEMERIS_TYPE":0,"CLASSIFICATION_TYPE":"U","NORAD_CAT_ID":56963,"ELEMENT_SET_NO":999,"REV_AT_EPOCH":15253,"BSTAR":0.0009263887,"MEAN_MOTION_DOT":0.00055448,"MEAN_MOTION_DDOT":0}]
